XM-5                    
1 37185U 10053A   18063.12827125 -.00000231  00000-0  00000+0 0  9995
2 37185   0.0223 149.5353 0001549 237.2752  95.9894  1.00270133 27099
BSAT-3B                 
1 37207U 10056B   18063.09768437 -.00000377  00000-0  00000+0 0  9990
2 37207   0.0867 298.6490 0005082  36.7540 331.3951  1.00272400 26919
BEIDOU 6                
1 37210U 10057A   18062.78174089 -.00000139  00000-0  00000-0 0  9991
2 37210   0.7387  42.5157 0005725 256.6671 303.7220  1.00270996 26937
SKYTERRA 1              
1 37218U 10061A   18061.76502526 -.00000145  00000-0  00000-0 0  9999
2 37218   2.9062 334.4556 0003745  18.1588 341.9296  1.00272171 26847
ZHONGXING-20A           
1 37234U 10064A   18063.11237164 -.00000364  00000-0  00000+0 0  9996
2 37234   0.0250 199.1503 0006685 154.8107 338.3174  1.00272873 26677
HYLAS 1                 
1 37237U 10065A   18062.75604707 -.00000261  00000-0  00000-0 0  9997
2 37237   0.0790 289.7607 0004684  60.5160  49.8076  1.00268838 26625
INTELSAT 17 (IS-17)     
1 37238U 10065B   18063.00366182 -.00000028  00000-0  00000+0 0  9999
2 37238   0.0495 260.4368 0002689  78.6639 249.9098  1.00272410 26563
EUTELSAT KA-SAT 9A      
1 37258U 10069A   18062.52697531  .00000034  00000-0  00000+0 0  9992
2 37258   0.0336 252.4690 0003824 100.6562   6.8355  1.00272775 26460
HISPASAT 1E             
1 37264U 10070A   18062.75604707 -.00000243  00000-0  00000+0 0  9992
2 37264   0.0202 137.6809 0002611 221.9757  43.9986  1.00271620 26315
KOREASAT 6              
1 37265U 10070B   18062.87168227 -.00000389  00000-0  00000+0 0  9999
2 37265   0.0226 140.1227 0002227 210.3661 240.9025  1.00269465 26322
INTELSAT NEW DAWN       
1 37392U 11016A   18062.86431326  .00000129  00000-0  00000+0 0  9994
2 37392   0.0180 187.6631 0000174 228.8962  88.9638  1.00273543 25167
YAHSAT 1A               
1 37393U 11016B   18063.14263769  .00000075  00000-0  00000+0 0  9991
2 37393   0.0104 128.0357 0001900 187.1868 310.4300  1.00271295 25204
TELSTAR 14R             
1 37602U 11021A   18062.83938182 -.00000307  00000-0  00000-0 0  9993
2 37602   0.0217 265.4456 0002144 102.1454  33.1316  1.00267739 25492
GSAT-8                  
1 37605U 11022A   18062.87757615  .00000058  00000-0  00000-0 0  9993
2 37605   0.0136 169.6298 0006599 125.7080 237.2110  1.00273032 22868
ST-2                    
1 37606U 11022B   18062.88865396 -.00000239  00000-0  00000-0 0  9993
2 37606   0.0142 172.3481 0001329 171.0755 226.0681  1.00272792 24920
CHINASAT 10 (ZX 10)     
1 37677U 11026A   18063.17174427 -.00000379  00000-0  00000+0 0  9990
2 37677   0.0790 268.4326 0001179 308.7043 117.0349  1.00274137 24615
TIANLIAN 1-02           
1 37737U 11032A   18063.05490411  .00000001  00000-0  00000+0 0  9996
2 37737   2.5297  74.4301 0007858 211.3640  72.3767  1.00263953 24364
GSAT-12                 
1 37746U 11034A   18063.12268337 -.00000191  00000-0  00000+0 0  9997
2 37746   0.0403 249.0954 0005656 202.9007 196.9592  1.00270809 24601
SES-3                   
1 37748U 11035A   18062.74282159 -.00000129  00000-0  00000-0 0  9997
2 37748   0.0500 301.4829 0002492  49.2586 335.1029  1.00271812 24252
KAZSAT-2                
1 37749U 11035B   18062.93587937 -.00000225  00000-0  00000-0 0  9998
2 37749   0.0517 296.0573 0001733 110.3205 178.6732  1.00271868 23049
ASTRA 1N                
1 37775U 11041A   18062.88657194  .00000092  00000-0  00000-0 0  9992
2 37775   0.0584 330.4667 0005212  39.1290 130.3457  1.00269467 14183
BSAT-3C (JCSAT-110R)    
1 37776U 11041B   18063.09768437 -.00000377  00000-0  00000+0 0  9996
2 37776   0.0496 290.1533 0000146 301.5720  75.1940  1.00272049 24167
PAKSAT-1R               
1 37779U 11042A   18063.13324418  .00000127  00000-0  00000+0 0  9994
2 37779   0.0129 186.5234 0004465 166.9356 254.3167  1.00273810 23927
CHINASAT 1A (ZX 1A)     
1 37804U 11047A   18062.87119593 -.00000365  00000-0  00000+0 0  9999
2 37804   0.0110 175.3665 0004675 151.4303 278.2208  1.00272437 23727
COSMOS 2473             
1 37806U 11048A   18062.58947740 -.00000135  00000-0  00000+0 0  9998
2 37806   0.0422 110.1061 0001992 260.9782 348.8865  1.00274574 23714
SES-2                   
1 37809U 11049A   18063.48104868 -.00000222  00000-0  00000+0 0  9995
2 37809   0.0495 308.4845 0002793  37.6670 262.1793  1.00272157 23672
ARABSAT-5C              
1 37810U 11049B   18062.88657194  .00000096  00000-0  00000-0 0  9994
2 37810   0.0624   1.7799 0002979 337.0385 161.9165  1.00270845 23700
EUTELSAT 7 WEST A       
1 37816U 11051A   18062.57217574 -.00000088  00000-0  00000-0 0  9995
2 37816   0.0631   4.2131 0001922 247.3619 108.3706  1.00270570 23556
QUETZSAT 1              
1 37826U 11054A   18062.41924285 -.00000269  00000-0  00000-0 0  9997
2 37826   0.0569 302.9607 0002493  48.4377 243.6386  1.00271600 23730
INTELSAT 18 (IS-18)     
1 37834U 11056A   18063.48865380  .00000027  00000-0  00000+0 0  9996
2 37834   0.0316 266.5342 0002019  74.4373 177.1202  1.00271146 23507
EUTELSAT 16A            
1 37836U 11057A   18062.88657194  .00000076  00000-0  00000-0 0  9999
2 37836   0.0667   3.2127 0004367 345.8216 147.7023  1.00270499 15644
VIASAT-1                
1 37843U 11059A   18063.47549115 -.00000049  00000-0  00000+0 0  9998
2 37843   0.0136 132.9517 0002562 212.7420 232.5275  1.00271637 23927
ASIASAT 7               
1 37933U 11069A   18062.87688053 -.00000361  00000-0  00000+0 0  9994
2 37933   0.0249 111.6492 0002054 229.4210 241.6820  1.00269457 23100
LUCH 5A                 
1 37951U 11074B   18062.73749373 -.00000072  00000-0  00000+0 0  9997
2 37951   1.7304 157.8033 0005051 175.6368 260.4745  1.00274733 22836
NIGCOMSAT 1R            
1 38014U 11077A   18063.13841400  .00000118  00000-0  00000+0 0  9990
2 38014   0.0074 281.3373 0002222  79.1374 253.6778  1.00269128 22679
FENGYUN 2F              
1 38049U 12002A   18062.86408773 -.00000382  00000-0  00000+0 0  9992
2 38049   2.2436  78.2173 0001557 238.6191 267.5116  1.00261169 22535
SES-4                   
1 38087U 12007A   18063.50674361 -.00000194  00000-0  00000+0 0  9990
2 38087   0.0163  61.6937 0002083 275.6888 345.2336  1.00271280 22132
BEIDOU 11               
1 38091U 12008A   18063.12969184  .00000031  00000-0  00000+0 0  9993
2 38091   2.1052  60.5757 0005685 249.9696 316.6901  1.00267977 22124
INTELSAT 22 (IS-22)     
1 38098U 12011A   18062.35224446 -.00000087  00000-0  00000-0 0  9996
2 38098   0.0214  70.2513 0002338 276.2817  13.4267  1.00272341 21471
APSTAR 7                
1 38107U 12013A   18063.07669541 -.00000128  00000-0  00000+0 0  9993
2 38107   0.0314 100.3049 0002552 253.7819 271.7975  1.00271637 21812
YAHSAT 1B               
1 38245U 12016A   18062.42017789  .00000099  00000-0  00000-0 0  9995
2 38245   0.0093 139.1189 0002424 189.8263  31.0066  1.00270804 15270
JCSAT-13                
1 38331U 12023A   18062.20849036 -.00000385  00000-0  00000-0 0  9992
2 38331   0.0397 287.1765 0002452  67.8561   4.9307  1.00272546 21172
VINASAT-2               
1 38332U 12023B   18062.82268118 -.00000356  00000-0  00000+0 0  9994
2 38332   0.0462 300.1154 0002522  62.8525 226.5468  1.00272284 21255
NIMIQ 6                 
1 38342U 12026A   18061.80704455 -.00000202  00000-0  00000-0 0  9995
2 38342   0.0500 301.5135 0002810  45.0579  13.3865  1.00271589 20063
CHINASAT 2A (ZX 2A)     
1 38352U 12028A   18063.21925812 -.00000319  00000-0  00000+0 0  9995
2 38352   0.0097 161.5555 0002612 188.4033 349.1246  1.00273319 21283
INTELSAT 19 (IS-19)     
1 38356U 12030A   18062.09211520 -.00000085  00000-0  00000+0 0  9991
2 38356   0.0213 291.0737 0002988  63.7763   5.1127  1.00272520 21155
ECHOSTAR 17             
1 38551U 12035A   18062.84871142 -.00000102  00000-0  00000+0 0  9998
2 38551   0.0246 144.4503 0001924 198.2096  17.3336  1.00270284 20771
METEOSAT-10 (MSG-3)     
1 38552U 12035B   18062.52032022  .00000067  00000-0  00000-0 0  9990
2 38552   0.8859  24.7931 0000694 278.9897  56.1783  1.00401585 20860
SES-5                   
1 38652U 12036A   18062.47893247  .00000006  00000-0  00000+0 0  9992
2 38652   0.0384 257.6396 0002252  82.4914 358.4260  1.00271965 20706
TIANLIAN 1-03           
1 38730U 12040A   18062.52284230  .00000044  00000-0  00000-0 0  9999
2 38730   0.0812 241.6695 0002407 166.7129 311.6041  1.00273784 18368
INTELSAT 20 (IS-20)     
1 38740U 12043A   18062.36222421 -.00000052  00000-0  00000+0 0  9998
2 38740   0.0234 133.3831 0001605  65.0902 161.4871  1.00272099 20470
HYLAS 2                 
1 38741U 12043B   18062.46603961  .00000126  00000-0  00000-0 0  9994
2 38741   0.0498 291.4956 0001970  49.4434  19.0197  1.00271548 20419
INTELSAT 21 (IS-21)     
1 38749U 12045A   18062.71275155 -.00000312  00000-0  00000+0 0  9999
2 38749   0.0162 218.5372 0002322 133.9449   7.5144  1.00267402 20287
ASTRA 2F                
1 38778U 12051A   18062.47380768  .00000122  00000-0  00000-0 0  9997
2 38778   0.0926 247.4639 0002248  27.4565  85.0200  1.00275569 10801
GSAT-10                 
1 38779U 12051B   18062.32206745 -.00000193  00000-0  00000-0 0  9993
2 38779   0.1031 266.1609 0001021 130.6275 323.1843  1.00271559 19766
INTELSAT 23 (IS-23)     
1 38867U 12057A   18062.69877631 -.00000312  00000-0  00000-0 0  9998
2 38867   0.0108 156.9551 0001977 187.4414  15.5639  1.00273069 19645
BEIDOU 16               
1 38953U 12059A   18062.93554543 -.00000202  00000-0  00000-0 0  9995
2 38953   1.6364  80.9496 0002754 219.9874 281.5130  1.00271710 19698
LUCH 5B                 
1 38977U 12061A   18062.90473961 -.00000156  00000-0  00000-0 0  9993
2 38977   4.0589  72.8467 0005469 262.7082 135.4994  1.00271861 19828
YAMAL 300K              
1 38978U 12061B   18063.39907150  .00000045  00000-0  00000+0 0  9995
2 38978   0.0289 246.0341 0001250 347.2663 255.3950  1.00271549 19520
